KUIPER-00215            
1 67779U 26030R   26191.50568176  .00001363  00000+0  22513-3 0  9992
2 67779  51.8989   7.3885 0000559  71.4218 288.6803 14.76354080 23683
KUIPER-00218            
1 67780U 26030S   26191.86814073  .00001977  00000+0  28832-3 0  9994
2 67780  51.8980  20.9062 0000709 110.2198 249.8840 14.79932503 23528
KUIPER-00220            
1 67781U 26030T   26192.00002315  .00012929  00000+0  17209-2 0  9994
2 67781  51.8955 355.3644 0001654  28.4013 170.5096 14.79953040  5698
KUIPER-00222            
1 67782U 26030U   26191.50215713  .00002115  00000+0  30636-3 0  9993
2 67782  51.8988  17.6798 0000534 109.6139 250.4881 14.79928873 23539
KUIPER-00223            
1 67783U 26030V   26189.92326990  .00002023  00000+0  29438-3 0  9993
2 67783  51.9007  16.9541 0000692 110.7061 249.3975 14.79925858 23411
KUIPER-00225            
1 67784U 26030W   26191.94379139  .00001987  00000+0  28953-3 0  9991
2 67784  51.8992  13.1840 0000781  98.6759 261.4292 14.79948558 23635
KUIPER-00226            
1 67785U 26030X   26192.16668980 -.00079957  00000+0 -11365-1 0  9993
2 67785  51.9006 358.0956 0006510 130.6779 130.4364 14.76909511  4768
KUIPER-00259            
1 67786U 26030Y   26191.50483830  .00001860  00000+0  27295-3 0  9997
2 67786  51.9003  15.0282 0000711 103.0284 257.0757 14.79927610 23575
KUIPER-00260            
1 67787U 26030Z   26191.50753755  .00001897  00000+0  27772-3 0  9994
2 67787  51.9007  12.6089 0000807 123.7541 236.3498 14.79934079 23512
KUIPER-00262            
1 67788U 26030AA  26191.94646444  .00001413  00000+0  21432-3 0  9990
2 67788  51.9011  10.5880 0000736 149.7861 210.3144 14.79935460 23670
KUIPER-00266            
1 67789U 26030AB  26191.51022528  .00001984  00000+0  28926-3 0  9993
2 67789  51.8998  10.0133 0002448 161.2699 198.8353 14.79931281 23646
KUIPER-00268            
1 67790U 26030AC  26192.15447036  .00002172  00000+0  31404-3 0  9996
2 67790  51.9055   4.6782 0000570 113.0049 247.0973 14.79904700 23775
KUIPER-00270            
1 67791U 26030AD  26191.45599328  .00002003  00000+0  29134-3 0  9991
2 67791  51.8997 357.7516 0000874  45.6736 314.4298 14.79989816 23812
KUIPER-00274            
1 67792U 26030AE  26190.95920273  .00002279  00000+0  32789-3 0  9998
2 67792  51.9013  22.4439 0000612 150.3843 209.7155 14.79931886 23425
KUIPER-00275            
1 67793U 26030AF  26190.84571963  .00006149  00000+0  83535-3 0  9990
2 67793  51.9007   2.9551 0000887 120.1012 240.0038 14.79908027 23681
KUIPER-00276            
1 67794U 26030AG  26191.81950763  .00001772  00000+0  26149-3 0  9993
2 67794  51.8987   3.6319 0002361 124.2301 235.8885 14.79929365 23762
