{"fetched_at":"2026-07-11T09:23:55.576Z","source":"https://celestrak.org/NORAD/elements/gp.php?GROUP=kuiper&FORMAT=JSON","constellation":"kuiper","records":[{"OBJECT_NAME":"KUIPER-00215","OBJECT_ID":"2026-030R","EPOCH":"2026-07-10T12:08:10.904064","CLASSIFICATION_TYPE":"U","MEAN_MOTION":14.7635408,"ECCENTRICITY":0.0000559,"INCLINATION":51.8989,"RA_OF_ASC_NODE":7.3885,"ARG_OF_PERICENTER":71.4218,"MEAN_ANOMALY":288.6803,"EPHEMERIS_TYPE":0,"NORAD_CAT_ID":67779,"ELEMENT_SET_NO":999,"REV_AT_EPOCH":2368,"BSTAR":0.00022513,"MEAN_MOTION_DOT":0.00001363,"MEAN_MOTION_DDOT":0},{"OBJECT_NAME":"KUIPER-00218","OBJECT_ID":"2026-030S","EPOCH":"2026-07-10T20:50:07.359072","CLASSIFICATION_TYPE":"U","MEAN_MOTION":14.79932503,"ECCENTRICITY":0.0000709,"INCLINATION":51.898,"RA_OF_ASC_NODE":20.9062,"ARG_OF_PERICENTER":110.2198,"MEAN_ANOMALY":249.884,"EPHEMERIS_TYPE":0,"NORAD_CAT_ID":67780,"ELEMENT_SET_NO":999,"REV_AT_EPOCH":2352,"BSTAR":0.00028832,"MEAN_MOTION_DOT":0.00001977,"MEAN_MOTION_DDOT":0},{"OBJECT_NAME":"KUIPER-00220","OBJECT_ID":"2026-030T","EPOCH":"2026-07-11T00:00:02.000160","CLASSIFICATION_TYPE":"U","MEAN_MOTION":14.7995304,"ECCENTRICITY":0.0001654,"INCLINATION":51.8955,"RA_OF_ASC_NODE":355.3644,"ARG_OF_PERICENTER":28.4013,"MEAN_ANOMALY":170.5096,"EPHEMERIS_TYPE":0,"NORAD_CAT_ID":67781,"ELEMENT_SET_NO":999,"REV_AT_EPOCH":569,"BSTAR":0.0017209,"MEAN_MOTION_DOT":0.00012929,"MEAN_MOTION_DDOT":0},{"OBJECT_NAME":"KUIPER-00222","OBJECT_ID":"2026-030U","EPOCH":"2026-07-10T12:03:06.376032","CLASSIFICATION_TYPE":"U","MEAN_MOTION":14.79928873,"ECCENTRICITY":0.0000534,"INCLINATION":51.8988,"RA_OF_ASC_NODE":17.6798,"ARG_OF_PERICENTER":109.6139,"MEAN_ANOMALY":250.4881,"EPHEMERIS_TYPE":0,"NORAD_CAT_ID":67782,"ELEMENT_SET_NO":999,"REV_AT_EPOCH":2353,"BSTAR":0.00030636,"MEAN_MOTION_DOT":0.00002115,"MEAN_MOTION_DDOT":0},{"OBJECT_NAME":"KUIPER-00223","OBJECT_ID":"2026-030V","EPOCH":"2026-07-08T22:09:30.519360","CLASSIFICATION_TYPE":"U","MEAN_MOTION":14.79925858,"ECCENTRICITY":0.00006923,"INCLINATION":51.9007,"RA_OF_ASC_NODE":16.9541,"ARG_OF_PERICENTER":110.7061,"MEAN_ANOMALY":249.3975,"EPHEMERIS_TYPE":0,"NORAD_CAT_ID":67783,"ELEMENT_SET_NO":999,"REV_AT_EPOCH":2341,"BSTAR":0.00029438266,"MEAN_MOTION_DOT":0.00002023,"MEAN_MOTION_DDOT":0},{"OBJECT_NAME":"KUIPER-00225","OBJECT_ID":"2026-030W","EPOCH":"2026-07-10T22:39:03.576096","CLASSIFICATION_TYPE":"U","MEAN_MOTION":14.79948558,"ECCENTRICITY":0.0000781,"INCLINATION":51.8992,"RA_OF_ASC_NODE":13.184,"ARG_OF_PERICENTER":98.6759,"MEAN_ANOMALY":261.4292,"EPHEMERIS_TYPE":0,"NORAD_CAT_ID":67784,"ELEMENT_SET_NO":999,"REV_AT_EPOCH":2363,"BSTAR":0.00028953,"MEAN_MOTION_DOT":0.00001987,"MEAN_MOTION_DDOT":0},{"OBJECT_NAME":"KUIPER-00226","OBJECT_ID":"2026-030X","EPOCH":"2026-07-11T04:00:01.998720","CLASSIFICATION_TYPE":"U","MEAN_MOTION":14.76909511,"ECCENTRICITY":0.000651,"INCLINATION":51.9006,"RA_OF_ASC_NODE":358.0956,"ARG_OF_PERICENTER":130.6779,"MEAN_ANOMALY":130.4364,"EPHEMERIS_TYPE":0,"NORAD_CAT_ID":67785,"ELEMENT_SET_NO":999,"REV_AT_EPOCH":476,"BSTAR":-0.011365,"MEAN_MOTION_DOT":-0.00079957,"MEAN_MOTION_DDOT":0},{"OBJECT_NAME":"KUIPER-00259","OBJECT_ID":"2026-030Y","EPOCH":"2026-07-10T12:06:58.029120","CLASSIFICATION_TYPE":"U","MEAN_MOTION":14.7992761,"ECCENTRICITY":0.0000711,"INCLINATION":51.9003,"RA_OF_ASC_NODE":15.0282,"ARG_OF_PERICENTER":103.0284,"MEAN_ANOMALY":257.0757,"EPHEMERIS_TYPE":0,"NORAD_CAT_ID":67786,"ELEMENT_SET_NO":999,"REV_AT_EPOCH":2357,"BSTAR":0.00027295,"MEAN_MOTION_DOT":0.0000186,"MEAN_MOTION_DDOT":0},{"OBJECT_NAME":"KUIPER-00260","OBJECT_ID":"2026-030Z","EPOCH":"2026-07-10T12:10:51.244320","CLASSIFICATION_TYPE":"U","MEAN_MOTION":14.79934079,"ECCENTRICITY":0.0000807,"INCLINATION":51.9007,"RA_OF_ASC_NODE":12.6089,"ARG_OF_PERICENTER":123.7541,"MEAN_ANOMALY":236.3498,"EPHEMERIS_TYPE":0,"NORAD_CAT_ID":67787,"ELEMENT_SET_NO":999,"REV_AT_EPOCH":2351,"BSTAR":0.00027772,"MEAN_MOTION_DOT":0.00001897,"MEAN_MOTION_DDOT":0},{"OBJECT_NAME":"KUIPER-00262","OBJECT_ID":"2026-030AA","EPOCH":"2026-07-10T22:42:54.527616","CLASSIFICATION_TYPE":"U","MEAN_MOTION":14.7993546,"ECCENTRICITY":0.0000736,"INCLINATION":51.9011,"RA_OF_ASC_NODE":10.588,"ARG_OF_PERICENTER":149.7861,"MEAN_ANOMALY":210.3144,"EPHEMERIS_TYPE":0,"NORAD_CAT_ID":67788,"ELEMENT_SET_NO":999,"REV_AT_EPOCH":2367,"BSTAR":0.00021432,"MEAN_MOTION_DOT":0.00001413,"MEAN_MOTION_DDOT":0},{"OBJECT_NAME":"KUIPER-00266","OBJECT_ID":"2026-030AB","EPOCH":"2026-07-10T12:14:43.464192","CLASSIFICATION_TYPE":"U","MEAN_MOTION":14.79931281,"ECCENTRICITY":0.0002448,"INCLINATION":51.8998,"RA_OF_ASC_NODE":10.0133,"ARG_OF_PERICENTER":161.2699,"MEAN_ANOMALY":198.8353,"EPHEMERIS_TYPE":0,"NORAD_CAT_ID":67789,"ELEMENT_SET_NO":999,"REV_AT_EPOCH":2364,"BSTAR":0.00028926,"MEAN_MOTION_DOT":0.00001984,"MEAN_MOTION_DDOT":0},{"OBJECT_NAME":"KUIPER-00268","OBJECT_ID":"2026-030AC","EPOCH":"2026-07-11T03:42:26.239104","CLASSIFICATION_TYPE":"U","MEAN_MOTION":14.799047,"ECCENTRICITY":0.000057,"INCLINATION":51.9055,"RA_OF_ASC_NODE":4.6782,"ARG_OF_PERICENTER":113.0049,"MEAN_ANOMALY":247.0973,"EPHEMERIS_TYPE":0,"NORAD_CAT_ID":67790,"ELEMENT_SET_NO":999,"REV_AT_EPOCH":2377,"BSTAR":0.00031404,"MEAN_MOTION_DOT":0.00002172,"MEAN_MOTION_DDOT":0},{"OBJECT_NAME":"KUIPER-00270","OBJECT_ID":"2026-030AD","EPOCH":"2026-07-10T10:56:37.819392","CLASSIFICATION_TYPE":"U","MEAN_MOTION":14.79989816,"ECCENTRICITY":0.00008742,"INCLINATION":51.8997,"RA_OF_ASC_NODE":357.7516,"ARG_OF_PERICENTER":45.6736,"MEAN_ANOMALY":314.4298,"EPHEMERIS_TYPE":0,"NORAD_CAT_ID":67791,"ELEMENT_SET_NO":999,"REV_AT_EPOCH":2381,"BSTAR":0.00029134464,"MEAN_MOTION_DOT":0.00002003,"MEAN_MOTION_DDOT":0},{"OBJECT_NAME":"KUIPER-00274","OBJECT_ID":"2026-030AE","EPOCH":"2026-07-09T23:01:15.115872","CLASSIFICATION_TYPE":"U","MEAN_MOTION":14.79931886,"ECCENTRICITY":0.00006124,"INCLINATION":51.9013,"RA_OF_ASC_NODE":22.4439,"ARG_OF_PERICENTER":150.3843,"MEAN_ANOMALY":209.7155,"EPHEMERIS_TYPE":0,"NORAD_CAT_ID":67792,"ELEMENT_SET_NO":999,"REV_AT_EPOCH":2342,"BSTAR":0.00032789424,"MEAN_MOTION_DOT":0.00002279,"MEAN_MOTION_DDOT":0},{"OBJECT_NAME":"KUIPER-00275","OBJECT_ID":"2026-030AF","EPOCH":"2026-07-09T20:17:50.176032","CLASSIFICATION_TYPE":"U","MEAN_MOTION":14.79908027,"ECCENTRICITY":0.00008872,"INCLINATION":51.9007,"RA_OF_ASC_NODE":2.9551,"ARG_OF_PERICENTER":120.1012,"MEAN_ANOMALY":240.0038,"EPHEMERIS_TYPE":0,"NORAD_CAT_ID":67793,"ELEMENT_SET_NO":999,"REV_AT_EPOCH":2368,"BSTAR":0.00083534516,"MEAN_MOTION_DOT":0.00006149,"MEAN_MOTION_DDOT":0},{"OBJECT_NAME":"KUIPER-00276","OBJECT_ID":"2026-030AG","EPOCH":"2026-07-10T19:40:05.459232","CLASSIFICATION_TYPE":"U","MEAN_MOTION":14.79929365,"ECCENTRICITY":0.0002361,"INCLINATION":51.8987,"RA_OF_ASC_NODE":3.6319,"ARG_OF_PERICENTER":124.2301,"MEAN_ANOMALY":235.8885,"EPHEMERIS_TYPE":0,"NORAD_CAT_ID":67794,"ELEMENT_SET_NO":999,"REV_AT_EPOCH":2376,"BSTAR":0.00026149,"MEAN_MOTION_DOT":0.00001772,"MEAN_MOTION_DDOT":0}]}
